GLOBALSTAR M067         
1 32263U 07048A   25099.15427874 -.00000077  00000+0  15472-3 0  9994
2 32263  51.9720 237.9276 0001324 162.3445  10.0933 12.40670044801163
GLOBALSTAR M070         
1 32264U 07048B   25099.11233226 -.00000050  00000+0  30156-3 0  9994
2 32264  51.9775 338.9344 0000709  65.3080  99.4532 12.62315650805922
GLOBALSTAR M066         
1 32265U 07048C   25098.67028547 -.00000080  00000+0  12883-3 0  9993
2 32265  51.9640 226.7502 0001860 100.6628 272.2199 12.35252966806712
GLOBALSTAR M068         
1 32266U 07048D   25098.92002351 -.00000016  00000+0  48749-3 0  9996
2 32266  51.9867 153.4065 0000678 356.9180 175.8562 12.62820169809091
GLOBALSTAR M079         
1 37188U 10054A   25098.95913130 -.00000077  00000+0  14900-3 0  9993
2 37188  52.0066 350.5277 0000918  95.8902 275.6386 12.62272744667719
GLOBALSTAR M074         
1 37189U 10054B   25099.17866766 -.00000068  00000+0  19907-3 0  9993
2 37189  52.0046 349.1943 0000566  86.2544  81.9541 12.62273629668419
GLOBALSTAR M076         
1 37190U 10054C   25099.12152263 -.00000073  00000+0  17047-3 0  9999
2 37190  52.0058 349.5292 0000688 106.0079  45.0078 12.62260599668412
GLOBALSTAR M077         
1 37191U 10054D   25098.86480633 -.00000070  00000+0  18796-3 0  9994
2 37191  52.0080 307.1510 0000800  95.1139  26.9432 12.62273039668394
